QIANFAN-65              
1 62795U 25016L   25293.18191376  .00000076  00000+0  98175-4 0  9996
2 62795  88.9722 108.6001 0015157 133.4291 226.8124 13.50972676 40011
QIANFAN-66              
1 62796U 25016M   25284.76742828  .00000126  00000+0  17597-3 0  9999
2 62796  88.9747 109.4302 0015725 152.1511 208.0485 13.50966984 38920
QIANFAN-67              
1 62797U 25016N   25293.14075941  .00000090  00000+0  12078-3 0  9996
2 62797  88.9732 108.5948 0016171 136.1194 224.1245 13.50969511 40022
QIANFAN-68              
1 62798U 25016P   25293.20661343  .00000080  00000+0  10467-3 0  9990
2 62798  88.9736 108.6312 0016260 134.3242 225.9245 13.50971855 40018
QIANFAN-69              
1 62799U 25016Q   25293.14905059  .00000091  00000+0  12195-3 0  9991
2 62799  88.9714 108.5181 0016986 135.6650 224.5865 13.50969292 40048
QIANFAN-70              
1 62800U 25016R   25293.16536311  .00000091  00000+0  12212-3 0  9997
2 62800  88.9735 108.6436 0016776 126.6030 233.6667 13.50971821 40005
QIANFAN-71              
1 62801U 25016S   25293.16134089  .00000089  00000+0  11815-3 0  9999
2 62801  88.9729 108.6268 0016834 138.8875 221.3548 13.50973051 40008
QIANFAN-72              
1 62802U 25016T   25274.29087208  .00000084  00000+0  11481-3 0  9997
2 62802  88.9730 110.6012 0018440 200.3911 159.6505 13.49486897 37447
